{
  "norad_id": 47306,
  "name": "TURKSAT 5A",
  "history": [
    {
      "epoch": "2026-03-28T06:52:38.548128Z",
      "apogee_km": 35787.04254974297,
      "perigee_km": 35785.673046951924,
      "latitude_deg": 0.002220696258343448,
      "longitude_deg": 30.920969818584574,
      "height_km": 35785.53105097931,
      "semi_major_axis_km": 42164.49479834745,
      "eccentricity": 1.624e-05,
      "inclination_deg": 0.0163,
      "raan_deg": 113.5111,
      "arg_perigee_deg": 144.0999,
      "mean_anomaly_deg": 62.1547,
      "mean_motion_rev_day": 1.00272631
    },
    {
      "epoch": "2026-03-29T02:54:45.516096Z",
      "apogee_km": 35787.92406303923,
      "perigee_km": 35786.05193148935,
      "latitude_deg": 0.02420332955538641,
      "longitude_deg": 30.91886822008389,
      "height_km": 35785.70928427107,
      "semi_major_axis_km": 42165.12499726429,
      "eccentricity": 2.22e-05,
      "inclination_deg": 0.0149,
      "raan_deg": 119.5645,
      "arg_perigee_deg": 106.7751,
      "mean_anomaly_deg": 34.7761,
      "mean_motion_rev_day": 1.00270383
    },
    {
      "epoch": "2026-03-29T04:37:20.677152Z",
      "apogee_km": 35787.654657526036,
      "perigee_km": 35785.881201624696,
      "latitude_deg": 0.01769392858161414,
      "longitude_deg": 30.919806587420418,
      "height_km": 35785.65692465323,
      "semi_major_axis_km": 42164.904929575365,
      "eccentricity": 2.103e-05,
      "inclination_deg": 0.015,
      "raan_deg": 119.405,
      "arg_perigee_deg": 120.3316,
      "mean_anomaly_deg": 47.0965,
      "mean_motion_rev_day": 1.00271168
    },
    {
      "epoch": "2026-03-31T18:13:55.284096Z",
      "apogee_km": 35786.915796070534,
      "perigee_km": 35786.1989962658,
      "latitude_deg": -0.007742165499420258,
      "longitude_deg": 30.90955771187678,
      "height_km": 35786.040253263665,
      "semi_major_axis_km": 42164.69439616817,
      "eccentricity": 8.5e-06,
      "inclination_deg": 0.0241,
      "raan_deg": 104.1195,
      "arg_perigee_deg": 301.0847,
      "mean_anomaly_deg": 88.2993,
      "mean_motion_rev_day": 1.00271919
    },
    {
      "epoch": "2026-04-01T16:28:47.050752Z",
      "apogee_km": 35786.72130582804,
      "perigee_km": 35786.16473337178,
      "latitude_deg": -0.017681891125682574,
      "longitude_deg": 30.910681285224037,
      "height_km": 35785.739244913966,
      "semi_major_axis_km": 42164.58001959991,
      "eccentricity": 6.6e-06,
      "inclination_deg": 0.0231,
      "raan_deg": 108.0787,
      "arg_perigee_deg": 315.3993,
      "mean_anomaly_deg": 44.6593,
      "mean_motion_rev_day": 1.00272327
    },
    {
      "epoch": "2026-04-01T16:28:47.051616Z",
      "apogee_km": 35786.719197599035,
      "perigee_km": 35786.16684160078,
      "latitude_deg": -0.01768189216757491,
      "longitude_deg": 30.910673631817012,
      "height_km": 35785.74073365208,
      "semi_major_axis_km": 42164.58001959991,
      "eccentricity": 6.55e-06,
      "inclination_deg": 0.0231,
      "raan_deg": 108.0787,
      "arg_perigee_deg": 315.3993,
      "mean_anomaly_deg": 44.6593,
      "mean_motion_rev_day": 1.00272327
    },
    {
      "epoch": "2026-04-02T21:33:55.086336Z",
      "apogee_km": 35787.51554198264,
      "perigee_km": 35785.89472545102,
      "latitude_deg": 0.005275173691995584,
      "longitude_deg": 30.913500290082574,
      "height_km": 35785.83864709799,
      "semi_major_axis_km": 42164.84213371683,
      "eccentricity": 1.922e-05,
      "inclination_deg": 0.0171,
      "raan_deg": 119.9473,
      "arg_perigee_deg": 1.7013,
      "mean_anomaly_deg": 63.9717,
      "mean_motion_rev_day": 1.00271392
    },
    {
      "epoch": "2026-04-03T18:06:28.430208Z",
      "apogee_km": 35787.17214349567,
      "perigee_km": 35785.849016854605,
      "latitude_deg": -0.011388578127815732,
      "longitude_deg": 30.91307198228955,
      "height_km": 35785.61751773452,
      "semi_major_axis_km": 42164.647580175144,
      "eccentricity": 1.569e-05,
      "inclination_deg": 0.0159,
      "raan_deg": 121.6538,
      "arg_perigee_deg": 318.923,
      "mean_anomaly_deg": 54.0284,
      "mean_motion_rev_day": 1.00272086
    }
  ]
}